{"fetched_at":"2026-07-08T07:03:38.157Z","source":"https://celestrak.org/NORAD/elements/gp.php?GROUP=spire&FORMAT=JSON","constellation":"spire","records":[{"OBJECT_NAME":"LEMUR-2-HUBBLE-4","OBJECT_ID":"2025-135AP","EPOCH":"2026-07-07T18:32:02.909760","CLASSIFICATION_TYPE":"U","MEAN_MOTION":14.93670036,"ECCENTRICITY":0.0002013,"INCLINATION":97.7714,"RA_OF_ASC_NODE":302.4375,"ARG_OF_PERICENTER":183.546,"MEAN_ANOMALY":176.5746,"EPHEMERIS_TYPE":0,"NORAD_CAT_ID":64565,"ELEMENT_SET_NO":999,"REV_AT_EPOCH":5694,"BSTAR":0.00010646,"MEAN_MOTION_DOT":0.00001069,"MEAN_MOTION_DDOT":0},{"OBJECT_NAME":"LEMUR-2-SEJONG-2","OBJECT_ID":"2025-135BL","EPOCH":"2026-07-07T19:52:47.415648","CLASSIFICATION_TYPE":"U","MEAN_MOTION":14.96877871,"ECCENTRICITY":0.000324,"INCLINATION":97.7706,"RA_OF_ASC_NODE":303.7117,"ARG_OF_PERICENTER":252.0265,"MEAN_ANOMALY":108.0603,"EPHEMERIS_TYPE":0,"NORAD_CAT_ID":64586,"ELEMENT_SET_NO":999,"REV_AT_EPOCH":5703,"BSTAR":0.00022826,"MEAN_MOTION_DOT":0.0000256,"MEAN_MOTION_DDOT":0},{"OBJECT_NAME":"LEMUR-2-HUBBLE-5","OBJECT_ID":"2025-135BT","EPOCH":"2026-07-07T05:57:05.327712","CLASSIFICATION_TYPE":"U","MEAN_MOTION":14.94195555,"ECCENTRICITY":0.00041029,"INCLINATION":97.7733,"RA_OF_ASC_NODE":302.5797,"ARG_OF_PERICENTER":269.9284,"MEAN_ANOMALY":90.1466,"EPHEMERIS_TYPE":0,"NORAD_CAT_ID":64840,"ELEMENT_SET_NO":999,"REV_AT_EPOCH":5690,"BSTAR":0.00012930824,"MEAN_MOTION_DOT":0.00001328,"MEAN_MOTION_DDOT":0},{"OBJECT_NAME":"LEMUR-2-KARENDARRELL","OBJECT_ID":"2025-135BU","EPOCH":"2026-07-07T19:03:34.187616","CLASSIFICATION_TYPE":"U","MEAN_MOTION":15.00431168,"ECCENTRICITY":0.0011706,"INCLINATION":97.7695,"RA_OF_ASC_NODE":304.9727,"ARG_OF_PERICENTER":128.1814,"MEAN_ANOMALY":232.0466,"EPHEMERIS_TYPE":0,"NORAD_CAT_ID":64841,"ELEMENT_SET_NO":999,"REV_AT_EPOCH":5710,"BSTAR":0.00041132,"MEAN_MOTION_DOT":0.0000512,"MEAN_MOTION_DDOT":0},{"OBJECT_NAME":"LEMUR-2-LUCILLE-ROSE","OBJECT_ID":"2025-135BV","EPOCH":"2026-07-07T13:37:11.814240","CLASSIFICATION_TYPE":"U","MEAN_MOTION":15.00427742,"ECCENTRICITY":0.0013915,"INCLINATION":97.7716,"RA_OF_ASC_NODE":304.7812,"ARG_OF_PERICENTER":212.5879,"MEAN_ANOMALY":147.4487,"EPHEMERIS_TYPE":0,"NORAD_CAT_ID":65403,"ELEMENT_SET_NO":999,"REV_AT_EPOCH":5169,"BSTAR":0.00035328,"MEAN_MOTION_DOT":0.0000439,"MEAN_MOTION_DDOT":0},{"OBJECT_NAME":"LEMUR-2-AFFIE-WAUWIE","OBJECT_ID":"2025-248C","EPOCH":"2026-07-05T19:47:57.109056","CLASSIFICATION_TYPE":"U","MEAN_MOTION":15.27976863,"ECCENTRICITY":0.0008364,"INCLINATION":45.3926,"RA_OF_ASC_NODE":13.9564,"ARG_OF_PERICENTER":202.7682,"MEAN_ANOMALY":157.2838,"EPHEMERIS_TYPE":0,"NORAD_CAT_ID":66295,"ELEMENT_SET_NO":999,"REV_AT_EPOCH":3744,"BSTAR":0.00082702,"MEAN_MOTION_DOT":0.00022785,"MEAN_MOTION_DDOT":0},{"OBJECT_NAME":"OTTER SDM","OBJECT_ID":"2025-276N","EPOCH":"2026-07-07T17:23:03.882336","CLASSIFICATION_TYPE":"U","MEAN_MOTION":15.1999747,"ECCENTRICITY":0.0004254,"INCLINATION":97.4202,"RA_OF_ASC_NODE":261.8614,"ARG_OF_PERICENTER":288.6878,"MEAN_ANOMALY":71.3895,"EPHEMERIS_TYPE":0,"NORAD_CAT_ID":66678,"ELEMENT_SET_NO":999,"REV_AT_EPOCH":3353,"BSTAR":0.00018905,"MEAN_MOTION_DOT":0.00004004,"MEAN_MOTION_DDOT":0},{"OBJECT_NAME":"LEMUR-2-STAS-GORBUK","OBJECT_ID":"2025-276W","EPOCH":"2026-07-07T17:51:08.449056","CLASSIFICATION_TYPE":"U","MEAN_MOTION":15.19607742,"ECCENTRICITY":0.0003445,"INCLINATION":97.4236,"RA_OF_ASC_NODE":261.9334,"ARG_OF_PERICENTER":285.9321,"MEAN_ANOMALY":74.1534,"EPHEMERIS_TYPE":0,"NORAD_CAT_ID":66686,"ELEMENT_SET_NO":999,"REV_AT_EPOCH":3353,"BSTAR":0.00019182,"MEAN_MOTION_DOT":0.00004017,"MEAN_MOTION_DDOT":0},{"OBJECT_NAME":"LEMUR-2-TEODOR","OBJECT_ID":"2025-276DG","EPOCH":"2026-07-07T18:30:00.011808","CLASSIFICATION_TYPE":"U","MEAN_MOTION":15.21283803,"ECCENTRICITY":0.000233,"INCLINATION":97.4139,"RA_OF_ASC_NODE":262.2223,"ARG_OF_PERICENTER":95.1979,"MEAN_ANOMALY":264.9522,"EPHEMERIS_TYPE":0,"NORAD_CAT_ID":66768,"ELEMENT_SET_NO":999,"REV_AT_EPOCH":3357,"BSTAR":0.00017255,"MEAN_MOTION_DOT":0.00003789,"MEAN_MOTION_DDOT":0},{"OBJECT_NAME":"LEMUR-2-LAILA","OBJECT_ID":"2025-276DQ","EPOCH":"2026-07-07T17:48:05.910912","CLASSIFICATION_TYPE":"U","MEAN_MOTION":15.21509372,"ECCENTRICITY":0.0002903,"INCLINATION":97.4165,"RA_OF_ASC_NODE":262.3276,"ARG_OF_PERICENTER":105.7296,"MEAN_ANOMALY":254.426,"EPHEMERIS_TYPE":0,"NORAD_CAT_ID":66776,"ELEMENT_SET_NO":999,"REV_AT_EPOCH":3357,"BSTAR":0.00018818,"MEAN_MOTION_DOT":0.00004166,"MEAN_MOTION_DDOT":0},{"OBJECT_NAME":"LEMUR-2-CELIJO-SB-PK","OBJECT_ID":"2025-276DW","EPOCH":"2026-07-07T17:09:21.968640","CLASSIFICATION_TYPE":"U","MEAN_MOTION":15.00234057,"ECCENTRICITY":0.0007386,"INCLINATION":97.5198,"RA_OF_ASC_NODE":258.8159,"ARG_OF_PERICENTER":82.7841,"MEAN_ANOMALY":277.4223,"EPHEMERIS_TYPE":0,"NORAD_CAT_ID":66781,"ELEMENT_SET_NO":999,"REV_AT_EPOCH":2570,"BSTAR":0.00031654,"MEAN_MOTION_DOT":0.00003905,"MEAN_MOTION_DDOT":0},{"OBJECT_NAME":"LEMUR-2-FINNIAN","OBJECT_ID":"2025-276DX","EPOCH":"2026-07-07T03:40:46.056576","CLASSIFICATION_TYPE":"U","MEAN_MOTION":15.00553279,"ECCENTRICITY":0.00081236,"INCLINATION":97.5346,"RA_OF_ASC_NODE":258.5193,"ARG_OF_PERICENTER":28.2723,"MEAN_ANOMALY":331.894,"EPHEMERIS_TYPE":0,"NORAD_CAT_ID":66782,"ELEMENT_SET_NO":999,"REV_AT_EPOCH":2299,"BSTAR":0.00021742572,"MEAN_MOTION_DOT":0.00002687,"MEAN_MOTION_DDOT":0},{"OBJECT_NAME":"LEMUR-2-STARLIGHT","OBJECT_ID":"2025-276DY","EPOCH":"2026-07-07T17:27:59.628672","CLASSIFICATION_TYPE":"U","MEAN_MOTION":14.99294536,"ECCENTRICITY":0.0014709,"INCLINATION":97.5225,"RA_OF_ASC_NODE":258.6642,"ARG_OF_PERICENTER":69.026,"MEAN_ANOMALY":291.2536,"EPHEMERIS_TYPE":0,"NORAD_CAT_ID":66783,"ELEMENT_SET_NO":999,"REV_AT_EPOCH":3327,"BSTAR":0.00035671,"MEAN_MOTION_DOT":0.00004308,"MEAN_MOTION_DDOT":0},{"OBJECT_NAME":"LEMUR-2-TARTIFLETTE","OBJECT_ID":"2025-276DZ","EPOCH":"2026-07-07T17:25:35.726016","CLASSIFICATION_TYPE":"U","MEAN_MOTION":14.99284529,"ECCENTRICITY":0.0013766,"INCLINATION":97.5226,"RA_OF_ASC_NODE":258.6704,"ARG_OF_PERICENTER":76.8058,"MEAN_ANOMALY":283.47,"EPHEMERIS_TYPE":0,"NORAD_CAT_ID":66784,"ELEMENT_SET_NO":999,"REV_AT_EPOCH":3327,"BSTAR":0.00028728,"MEAN_MOTION_DOT":0.00003456,"MEAN_MOTION_DDOT":0},{"OBJECT_NAME":"LEMUR-2-VUKASIN","OBJECT_ID":"2025-276EA","EPOCH":"2026-07-07T18:27:37.216800","CLASSIFICATION_TYPE":"U","MEAN_MOTION":15.00501248,"ECCENTRICITY":0.0004191,"INCLINATION":97.5244,"RA_OF_ASC_NODE":259.057,"ARG_OF_PERICENTER":76.2705,"MEAN_ANOMALY":283.8986,"EPHEMERIS_TYPE":0,"NORAD_CAT_ID":66785,"ELEMENT_SET_NO":999,"REV_AT_EPOCH":3323,"BSTAR":0.00026163,"MEAN_MOTION_DOT":0.00003239,"MEAN_MOTION_DDOT":0},{"OBJECT_NAME":"LEMUR-2-HOTSPUR-TOM","OBJECT_ID":"2025-276EB","EPOCH":"2026-07-07T17:16:51.227040","CLASSIFICATION_TYPE":"U","MEAN_MOTION":14.99191668,"ECCENTRICITY":0.0013963,"INCLINATION":97.5216,"RA_OF_ASC_NODE":258.6413,"ARG_OF_PERICENTER":68.0373,"MEAN_ANOMALY":292.2333,"EPHEMERIS_TYPE":0,"NORAD_CAT_ID":66786,"ELEMENT_SET_NO":999,"REV_AT_EPOCH":3320,"BSTAR":0.00031113,"MEAN_MOTION_DOT":0.00003739,"MEAN_MOTION_DDOT":0}]}
